COSMOS 2433 (720)       
1 32275U 07052A   22352.19806329 -.00000025  00000+0  00000+0 0  9991
2 32275  66.0678 358.5731 0005299 251.7548 211.8692  2.13104162117887
COSMOS 2432 (719)       
1 32276U 07052B   22352.18384328 -.00000025  00000+0  00000+0 0  9991
2 32276  66.0828 358.6784 0010993 313.9459  86.5510  2.13103387117887
COSMOS 2434 (721)       
1 32393U 07065A   22351.58624791  .00000046  00000+0  00000+0 0  9991
2 32393  64.3583 235.1804 0003467  69.3220 175.1294  2.13103148116578
COSMOS 2436 (723)       
1 32395U 07065C   22352.20246975  .00000053  00000+0  00000+0 0  9995
2 32395  64.3671 235.2187 0016601   2.9632 129.9480  2.13102808116528
COSMOS 2456 (730)       
1 36111U 09070A   22351.60457154  .00000043  00000+0  00000+0 0  9998
2 36111  64.4049 114.7636 0001536 318.4485 103.0697  2.13099061101242
COSMOS 2457 (733)       
1 36112U 09070B   22351.59379708  .00000043  00000+0  00000+0 0  9995
2 36112  64.3884 114.6355 0006604 154.6794  27.3171  2.13101316101242
COSMOS 2460 (732)       
1 36402U 10007C   22351.43691153 -.00000027  00000+0  00000+0 0  9996
2 36402  65.9367 357.3579 0002403 263.0825 143.9730  2.13106344 99590
COSMOS 2464 (736)       
1 37139U 10041C   22352.21345741  .00000055  00000+0  00000+0 0  9998
2 37139  63.9568 234.1434 0030581  11.3193 211.2229  2.13101077 95665
COSMOS 2476 (744)       
1 37867U 11064A   22351.64661073  .00000046  00000+0  00000+0 0  9997
2 37867  64.6901 116.1897 0021360 230.8857 129.9454  2.13101745 86593
COSMOS 2477 (745)       
1 37868U 11064B   22352.39761545  .00000041  00000+0  00000+0 0  9991
2 37868  64.6983 116.2305 0018473 230.8327 164.1665  2.13101569 86568
COSMOS 2475 (743)       
1 37869U 11064C   22351.54462490  .00000047  00000+0  00000+0 0  9991
2 37869  64.7055 116.2692 0022070 249.9495 168.8754  2.13101750 86555
COSMOS 2485 (747)       
1 39155U 13019A   22351.52224328  .00000048  00000+0  00000+0 0  9998
2 39155  64.8523 116.6611 0021807 226.6685  83.1511  2.13101767 75052
COSMOS 2492 (754)       
1 39620U 14012A   22351.73663970 -.00000026  00000+0  00000+0 0  9999
2 39620  65.8228 357.0036 0014144 312.9729 195.6433  2.13103170 68018
COSMOS 2500 (755)       
1 40001U 14032A   22352.21091229 -.00000025  00000+0  00000+0 0  9991
2 40001  65.7623 356.8362 0008112 218.5645 152.0294  2.13102349 66248
COSMOS 2501 (702K)      
1 40315U 14075A   22351.79041457  .00000049  00000+0  00000+0 0  9991
2 40315  63.6633 234.7568 0017582 208.0693   8.8249  2.13101308 62635
COSMOS 2514 (751)       
1 41330U 16008A   22352.42623605 -.00000026  00000+0  00000+0 0  9995
2 41330  65.5606 356.4725 0011667 223.9000 136.0488  2.13102612 53411
COSMOS 2516 (753)       
1 41554U 16032A   22351.14039659  .00000041  00000+0  00000+0 0  9994
2 41554  63.8892 235.1077 0014045 213.5724 146.4156  2.13106467 50990
COSMOS 2522 (752)       
1 42939U 17055A   22351.55665252  .00000045  00000+0  00000+0 0  9991
2 42939  64.1233 235.5412 0006726 245.4004 287.7199  2.13102054 40757
COSMOS 2527 (756)       
1 43508U 18053A   22351.76141527  .00000047  00000+0  00000+0 0  9992
2 43508  65.0150 116.6920 0007908 214.9338 147.2822  2.13102481 35059
COSMOS 2529 (757)       
1 43687U 18086A   22351.64239905  .00000045  00000+0  00000+0 0  9999
2 43687  64.3380 235.9034 0008756 270.7606 283.6317  2.13102105 32060
COSMOS 2534 (758)       
1 44299U 19030A   22351.50530462  .00000044  00000+0  00000+0 0  9995
2 44299  64.4109 235.8097 0011603 291.7168 291.8944  2.13101850 27707
COSMOS 2544 (759)       
1 44850U 19088A   22351.73321377  .00000047  00000+0  16595+1 0  9999
2 44850  65.0004 116.5408 0011342 249.8636 134.0278  2.13102239 23487
COSMOS 2545 (760)       
1 45358U 20018A   22351.90257759 -.00000028  00000+0  00000+0 0  9992
2 45358  64.8994 356.9495 0011589 249.9215 113.1539  2.13102663 21442
COSMOS 2547 (705K)      
1 46805U 20075A   22351.44060554  .00000044  00000+0  00000+0 0  9994
2 46805  64.6362 235.2905 0006245 245.8897 336.3992  2.13102952 16678
COSMOS 2557 (706K)      
1 52984U 22075A   22352.40767899 -.00000028  00000+0  10000-3 0  9992
2 52984  64.8069 359.1204 0013699 279.2266 202.1807  2.13101771  3498
COSMOS 2559 (707K)      
1 54031U 22130A   22351.50188359 -.00000030  00000+0  00000+0 0  9995
2 54031  64.7770 359.2886 0007669 231.3684 320.4672  2.13101330  1450
COSMOS 2564 (761)       
1 54377U 22161A   22343.65354395  .00000039  00000+0  00000+0 0  9992
2 54377  64.7779 235.5578 0027076 231.7607 268.2837  2.13730792   236
